JILIN-1 GAOFEN 3A       
1 44312U 19032C   26068.74542089  .00016264  00000+0  55381-3 0  9993
2 44312  44.9746 183.2861 0002618 111.2900 248.8263 15.30271310372592
STARLINK-34297          
1 64261U 25120F   26068.40960766  .00025377  00000+0  86586-3 0  9998
2 64261  53.1583 117.9679 0001053  89.9966 270.1155 15.30205385 43776
